[{"OBJECT_NAME":"JILIN-1 07","OBJECT_ID":"2018-008E","EPOCH":"2026-03-09T22:24:26.445888","MEAN_MOTION":15.32987507,"ECCENTRICITY":0.00101791,"INCLINATION":97.1876,"RA_OF_ASC_NODE":91.5817,"ARG_OF_PERICENTER":62.7832,"MEAN_ANOMALY":297.4447,"EPHEMERIS_TYPE":0,"CLASSIFICATION_TYPE":"U","NORAD_CAT_ID":43159,"ELEMENT_SET_NO":999,"REV_AT_EPOCH":44978,"BSTAR":0.00036439521,"MEAN_MOTION_DOT":0.00011559,"MEAN_MOTION_DDOT":0},{"OBJECT_NAME":"STARLINK-35228","OBJECT_ID":"2025-198AB","EPOCH":"2026-03-09T19:51:10.979424","MEAN_MOTION":15.30196191,"ECCENTRICITY":0.00010626,"INCLINATION":53.1587,"RA_OF_ASC_NODE":270.1762,"ARG_OF_PERICENTER":85.2428,"MEAN_ANOMALY":274.8694,"EPHEMERIS_TYPE":0,"CLASSIFICATION_TYPE":"U","NORAD_CAT_ID":65517,"ELEMENT_SET_NO":999,"REV_AT_EPOCH":2864,"BSTAR":0.00070421646,"MEAN_MOTION_DOT":0.00020553,"MEAN_MOTION_DDOT":0}]
